NORAD_CAT_ID,OBJECT_NAME,OBJECT_TYPE,EPOCH,MEAN_MOTION,ECCENTRICITY,INCLINATION,RA_OF_ASC_NODE,ARG_OF_PERICENTER,MEAN_ANOMALY,BSTAR,MEAN_MOTION_DOT,MEAN_MOTION_DDOT,TLE_LINE0,TLE_LINE1,TLE_LINE2,SEMIMAJOR_AXIS,PERIOD,APOGEE,PERIGEE,DECAYED
51814.0,STARLINK-3599,PAYLOAD,2024-03-14 04:01:43,15.0881871,0.0001681,53.2196,346.1102,110.9082,249.209,0.00032167,4.832e-05,0.0,0 STARLINK-3599,1 51814U 22017AY  24074.16786631  .00004832  00000-0  32167-3 0  9995,2 51814  53.2196 346.1102 0001681 110.9082 249.2090 15.08818710114675,6917.945,95.439,540.973,538.648,0.0
51814.0,STARLINK-3599,PAYLOAD,2024-03-14 21:30:59,15.08784171,0.000201,53.2183,342.836,124.4972,235.621,0.00040616,6.172e-05,0.0,0 STARLINK-3599,1 51814U 22017AY  24074.89652096  .00006172  00000-0  40616-3 0  9999,2 51814  53.2183 342.8360 0002010 124.4972 235.6210 15.08784171114660,6918.051,95.441,541.307,538.526,0.0
51814.0,STARLINK-3599,PAYLOAD,2024-03-15 03:52:32,15.08820219,0.000139,53.2194,341.6519,90.5433,269.5718,-0.00011152,-2.061e-05,0.0,0 STARLINK-3599,1 51814U 22017AY  24075.16148703 -.00002061  00000-0 -11152-3 0  9993,2 51814  53.2194 341.6519 0001390  90.5433 269.5718 15.08820219114821,6917.941,95.439,540.767,538.844,0.0
51814.0,STARLINK-3599,PAYLOAD,2024-03-15 18:10:59,15.08837573,0.0001127,53.2183,338.9795,101.7368,258.375,-3.5032e-05,-8.45e-06,0.0,0 STARLINK-3599,1 51814U 22017AY  24075.75763805 -.00000845  00000-0 -35032-4 0  9996,2 51814  53.2183 338.9795 0001127 101.7368 258.3750 15.08837573114917,6917.888,95.438,540.532,538.973,0.0
51814.0,STARLINK-3599,PAYLOAD,2024-03-15 22:57:09,15.08838187,0.0001591,53.2192,338.0912,56.7137,303.4007,2.3043e-06,-2.51e-06,0.0,0 STARLINK-3599,1 51814U 22017AY  24075.95635891 -.00000251  00000-0  23043-5 0  9991,2 51814  53.2192 338.0912 0001591  56.7137 303.4007 15.08838187114826,6917.886,95.438,540.852,538.65,0.0
51814.0,STARLINK-3599,PAYLOAD,2024-03-16 03:43:17,15.08849837,0.0001268,53.2189,337.1936,95.1106,265.0031,8.1623e-05,1.012e-05,0.0,0 STARLINK-3599,1 51814U 22017AY  24076.15506651  .00001012  00000-0  81623-4 0  9997,2 51814  53.2189 337.1936 0001268  95.1106 265.0031 15.08849837114972,6917.85,95.437,540.593,538.838,0.0
51814.0,STARLINK-3599,PAYLOAD,2024-03-16 18:01:47,15.08829455,0.0001443,53.2191,334.5145,87.5525,272.5633,0.00017926,2.565e-05,0.0,0 STARLINK-3599,1 51814U 22017AY  24076.75123854  .00002565  00000-0  17926-3 0  9991,2 51814  53.2191 334.5145 0001443  87.5525 272.5633 15.08829455115069,6917.913,95.438,540.776,538.779,0.0
51814.0,STARLINK-3599,PAYLOAD,2024-03-16 22:47:56,15.08835976,0.0001536,53.2196,333.6215,100.6265,259.49,0.00015855,2.236e-05,0.0,0 STARLINK-3599,1 51814U 22017AY  24076.94995597  .00002236  00000-0  15855-3 0  9997,2 51814  53.2196 333.6215 0001536 100.6265 259.4900 15.08835976114978,6917.893,95.438,540.82,538.695,0.0
51814.0,STARLINK-3599,PAYLOAD,2024-03-17 01:58:42,15.08839628,0.0001587,53.2199,333.0266,101.5303,258.5868,0.00019053,2.746e-05,0.0,0 STARLINK-3599,1 51814U 22017AY  24077.08243288  .00002746  00000-0  19053-3 0  9996,2 51814  53.2199 333.0266 0001587 101.5303 258.5868 15.08839628115118,6917.882,95.438,540.844,538.649,0.0
51814.0,STARLINK-3599,PAYLOAD,2024-03-17 21:03:20,15.08820001,0.0001741,53.2203,329.4578,100.4796,259.6392,0.00035505,5.364e-05,0.0,0 STARLINK-3599,1 51814U 22017AY  24077.87731733  .00005364  00000-0  35505-3 0  9999,2 51814  53.2203 329.4578 0001741 100.4796 259.6392 15.08820001115237,6917.942,95.439,541.011,538.602,0.0
51814.0,STARLINK-3599,PAYLOAD,2024-03-17 22:38:42,15.08851207,0.0001696,53.2204,329.1615,107.6837,252.434,-2.4529e-05,-6.79e-06,0.0,0 STARLINK-3599,1 51814U 22017AY  24077.94355116 -.00000679  00000-0 -24529-4 0  9995,2 51814  53.2204 329.1615 0001696 107.6837 252.4340 15.08851207115125,6917.846,95.437,540.884,538.538,0.0
51814.0,STARLINK-3599,PAYLOAD,2024-03-18 01:49:28,15.08852964,0.0001572,53.2196,328.57,101.3332,258.7836,8.9564e-06,-1.45e-06,0.0,0 STARLINK-3599,1 51814U 22017AY  24078.07602843 -.00000145  00000-0  89564-5 0  9990,2 51814  53.2196 328.5700 0001572 101.3332 258.7836 15.08852964115262,6917.841,95.437,540.793,538.618,0.0
51814.0,STARLINK-3599,PAYLOAD,2024-03-18 20:54:06,15.08844994,0.000158,53.2183,324.9993,79.8607,280.2564,-2.6151e-05,-7.04e-06,0.0,0 STARLINK-3599,1 51814U 22017AY  24078.87091217 -.00000704  00000-0 -26151-4 0  9999,2 51814  53.2183 324.9993 0001580  79.8607 280.2564 15.08844994115380,6917.865,95.437,540.823,538.637,0.0
51814.0,STARLINK-3599,PAYLOAD,2024-03-18 22:29:29,15.08844154,0.0001526,53.2191,324.7004,79.6914,280.425,-1.1377e-05,-4.69e-06,0.0,0 STARLINK-3599,1 51814U 22017AY  24078.93715159 -.00000469  00000-0 -11377-4 0  9996,2 51814  53.2191 324.7004 0001526  79.6914 280.4250 15.08844154115279,6917.868,95.437,540.788,538.677,0.0
51814.0,STARLINK-3599,PAYLOAD,2024-03-19 00:04:52,15.08848685,0.0001549,53.2195,324.4054,89.1022,271.0148,7.3397e-06,-1.71e-06,0.0,0 STARLINK-3599,1 51814U 22017AY  24079.00338750 -.00000171  00000-0  73397-5 0  9993,2 51814  53.2195 324.4054 0001549  89.1022 271.0148 15.08848685115282,6917.854,95.437,540.79,538.647,0.0
51814.0,STARLINK-3599,PAYLOAD,2024-03-19 22:20:15,15.0885356,0.0001459,53.2202,320.2377,85.1132,275.0027,1.3594e-05,-7.2e-07,0.0,0 STARLINK-3599,1 51814U 22017AY  24079.93073933 -.00000072  00000-0  13594-4 0  9996,2 51814  53.2202 320.2377 0001459  85.1132 275.0027 15.08853560115548,6917.839,95.437,540.713,538.695,0.0
51814.0,STARLINK-3599,PAYLOAD,2024-03-20 01:31:02,15.08854442,0.0001577,53.2205,319.6429,76.7205,283.3963,3.3169e-05,2.4e-06,0.0,0 STARLINK-3599,1 51814U 22017AY  24080.06321768  .00000240  00000-0  33169-4 0  9990,2 51814  53.2205 319.6429 0001577  76.7205 283.3963 15.08854442115449,6917.836,95.437,540.792,538.61,0.0
51814.0,STARLINK-3599,PAYLOAD,2024-03-20 20:35:40,15.08835965,0.0001274,53.2189,316.08,100.2958,259.8178,-8.6233e-05,-1.66e-05,0.0,0 STARLINK-3599,1 51814U 22017AY  24080.85811276 -.00001660  00000-0 -86233-4 0  9994,2 51814  53.2189 316.0800 0001274 100.2958 259.8178 15.08835965115687,6917.893,95.438,540.639,538.876,0.0
51814.0,STARLINK-3599,PAYLOAD,2024-03-20 22:11:03,15.08836963,0.0001389,53.2187,315.7828,106.8004,253.3141,-7.7452e-05,-1.52e-05,0.0,0 STARLINK-3599,1 51814U 22017AY  24080.92435174 -.00001520  00000-0 -77452-4 0  9999,2 51814  53.2187 315.7828 0001389 106.8004 253.3141 15.08836963115578,6917.89,95.438,540.716,538.794,0.0
51814.0,STARLINK-3599,PAYLOAD,2024-03-21 20:26:27,15.08852837,0.0001258,53.2185,311.6183,105.9564,254.1567,-0.00014249,-2.556e-05,0.0,0 STARLINK-3599,1 51814U 22017AY  24081.85170672 -.00002556  00000-0 -14249-3 0  9995,2 51814  53.2185 311.6183 0001258 105.9564 254.1567 15.08852837115839,6917.841,95.437,540.576,538.836,0.0
51814.0,STARLINK-3599,PAYLOAD,2024-03-21 22:01:50,15.08859319,0.0001235,53.2182,311.3211,103.9378,256.1752,-0.00018689,-3.263e-05,0.0,0 STARLINK-3599,1 51814U 22017AY  24081.91794418 -.00003263  00000-0 -18689-3 0  9990,2 51814  53.2182 311.3211 0001235 103.9378 256.1752 15.08859319115729,6917.821,95.436,540.541,538.832,0.0
51814.0,STARLINK-3599,PAYLOAD,2024-03-22 20:17:14,15.08838589,0.0001347,53.2179,307.1617,99.8482,260.2663,0.00013704,1.894e-05,0.0,0 STARLINK-3599,1 51814U 22017AY  24082.84530818  .00001894  00000-0  13704-3 0  9994,2 51814  53.2179 307.1617 0001347  99.8482 260.2663 15.08838589115982,6917.885,95.438,540.682,538.818,0.0
51814.0,STARLINK-3599,PAYLOAD,2024-03-22 21:52:37,15.08840049,0.0001395,53.2182,306.8643,103.6342,256.4806,0.00015085,2.114e-05,0.0,0 STARLINK-3599,1 51814U 22017AY  24082.91154704  .00002114  00000-0  15085-3 0  9998,2 51814  53.2182 306.8643 0001395 103.6342 256.4806 15.08840049115871,6917.88,95.438,540.71,538.78,0.0
51814.0,STARLINK-3599,PAYLOAD,2024-03-23 21:43:25,15.08844041,0.0001318,53.2178,302.406,111.6612,248.452,3.1713e-05,2.17e-06,0.0,0 STARLINK-3599,1 51814U 22017AY  24083.90515241  .00000217  00000-0  31713-4 0  9994,2 51814  53.2178 302.4060 0001318 111.6612 248.4520 15.08844041116146,6917.868,95.437,540.645,538.821,0.0
51814.0,STARLINK-3599,PAYLOAD,2024-03-24 07:15:43,15.08846708,0.0001231,53.2162,300.6207,99.081,261.0321,7.3508e-05,8.82e-06,0.0,0 STARLINK-3599,1 51814U 22017AY  24084.30258855  .00000882  00000-0  73508-4 0  9990,2 51814  53.2162 300.6207 0001231  99.0810 261.0321 15.08846708116080,6917.86,95.437,540.576,538.873,0.0
51814.0,STARLINK-3599,PAYLOAD,2024-03-24 21:34:11,15.08857461,0.0001256,53.2171,297.9399,91.6727,268.4409,0.00029802,4.46e-05,0.0,0 STARLINK-3599,1 51814U 22017AY  24084.89874539  .00004460  00000-0  29802-3 0  9990,2 51814  53.2171 297.9399 0001256  91.6727 268.4409 15.08857461116178,6917.827,95.436,540.561,538.823,0.0
51814.0,STARLINK-3599,PAYLOAD,2024-03-24 23:09:34,15.08861029,0.0001264,53.217,297.6425,106.5291,253.584,0.00034224,5.166e-05,0.0,0 STARLINK-3599,1 51814U 22017AY  24084.96498248  .00005166  00000-0  34224-3 0  9995,2 51814  53.2170 297.6425 0001264 106.5291 253.5840 15.08861029116309,6917.816,95.436,540.556,538.807,0.0
51814.0,STARLINK-3599,PAYLOAD,2024-03-25 07:06:30,15.08842138,9.9e-05,53.2181,296.1512,97.6923,262.4182,0.00013523,1.865e-05,0.0,0 STARLINK-3599,1 51814U 22017AY  24085.29618893  .00001865  00000-0  13523-3 0  9993,2 51814  53.2181 296.1512 0000990  97.6923 262.4182 15.08842138116352,6917.874,95.437,540.424,539.054,0.0
51814.0,STARLINK-3599,PAYLOAD,2024-03-25 21:24:59,15.08844447,0.0001398,53.2167,293.4837,91.0466,269.0686,0.00010386,1.366e-05,0.0,0 STARLINK-3599,1 51814U 22017AY  24085.89235174  .00001366  00000-0  10386-3 0  9996,2 51814  53.2167 293.4837 0001398  91.0466 269.0686 15.08844447116323,6917.867,95.437,540.699,538.765,0.0
51814.0,STARLINK-3599,PAYLOAD,2024-03-26 13:18:51,15.08833709,0.0001457,53.2167,290.5087,95.0202,265.0956,-6.2098e-06,-3.87e-06,0.0,0 STARLINK-3599,1 51814U 22017AY  24086.55475768 -.00000387  00000-0 -62098-5 0  9998,2 51814  53.2167 290.5087 0001457  95.0202 265.0956 15.08833709116545,6917.9,95.438,540.773,538.757,0.0
